{
  "type": "FeatureCollection",
  "features": [
    {
      "type": "Feature",
      "properties": {
        "norad_id": 31150,
        "name": "FENGYUN 1C DEB",
        "group": "fengyun-1c-debris",
        "lat": -19.955557758584966,
        "lon": 8.475584849611115,
        "alt_km": 865.0270148617874,
        "timestamp": "2025-12-22T22:44:21.256138+00:00",
        "meta_object_name": "FENGYUN 1C DEB",
        "meta_object_id": "1999-025BHC",
        "meta_epoch": "2025-12-20T12:03:49.060224",
        "meta_mean_motion": 14.12737693,
        "meta_eccentricity": 0.00156358,
        "meta_inclination": 98.6853,
        "meta_ra_of_asc_node": 2.9234,
        "meta_arg_of_pericenter": 138.1428,
        "meta_mean_anomaly": 14.8315,
        "meta_ephemeris_type": 0,
        "meta_classification_type": "U",
        "meta_norad_cat_id": 31150,
        "meta_element_set_no": 999,
        "meta_rev_at_epoch": 96406,
        "meta_bstar": 0.00012292185,
        "meta_mean_motion_dot": 1.86e-06,
        "meta_mean_motion_ddot": 0,
        "tle_line1": "1 31150U 99025BHC 25354.50265116  .00000186  00000+0  12292-3 0  9993",
        "tle_line2": "2 31150  98.6853   2.9234 0015635 138.1428  14.8315 14.12737693964068"
      },
      "geometry": {
        "type": "Point",
        "coordinates": [
          8.475584849611115,
          -19.955557758584966
        ]
      }
    },
    {
      "type": "Feature",
      "properties": {
        "norad_id": 31151,
        "name": "FENGYUN 1C DEB",
        "group": "fengyun-1c-debris",
        "lat": -78.09090934292308,
        "lon": 133.08334467827805,
        "alt_km": 814.9367923486625,
        "timestamp": "2025-12-22T22:44:21.256148+00:00",
        "meta_object_name": "FENGYUN 1C DEB",
        "meta_object_id": "1999-025BHD",
        "meta_epoch": "2025-12-22T11:24:18.125856",
        "meta_mean_motion": 14.25906921,
        "meta_eccentricity": 0.00563274,
        "meta_inclination": 99.1351,
        "meta_ra_of_asc_node": 2.3164,
        "meta_arg_of_pericenter": 357.1221,
        "meta_mean_anomaly": 2.9626,
        "meta_ephemeris_type": 0,
        "meta_classification_type": "U",
        "meta_norad_cat_id": 31151,
        "meta_element_set_no": 999,
        "meta_rev_at_epoch": 96113,
        "meta_bstar": 0.0023357835,
        "meta_mean_motion_dot": 5.613e-05,
        "meta_mean_motion_ddot": 0,
        "tle_line1": "1 31151U 99025BHD 25356.47520979  .00005613  00000+0  23358-2 0  9997",
        "tle_line2": "2 31151  99.1351   2.3164 0056327 357.1221   2.9626 14.25906921961135"
      },
      "geometry": {
        "type": "Point",
        "coordinates": [
          133.08334467827805,
          -78.09090934292308
        ]
      }
    },
    {
      "type": "Feature",
      "properties": {
        "norad_id": 31152,
        "name": "FENGYUN 1C DEB",
        "group": "fengyun-1c-debris",
        "lat": -7.801515288090959,
        "lon": -15.534292268876777,
        "alt_km": 685.0204204534957,
        "timestamp": "2025-12-22T22:44:21.256159+00:00",
        "meta_object_name": "FENGYUN 1C DEB",
        "meta_object_id": "1999-025BHE",
        "meta_epoch": "2025-12-21T21:49:38.963136",
        "meta_mean_motion": 14.35855978,
        "meta_eccentricity": 0.01296145,
        "meta_inclination": 98.4148,
        "meta_ra_of_asc_node": 342.2903,
        "meta_arg_of_pericenter": 6.0973,
        "meta_mean_anomaly": 24.0524,
        "meta_ephemeris_type": 0,
        "meta_classification_type": "U",
        "meta_norad_cat_id": 31152,
        "meta_element_set_no": 999,
        "meta_rev_at_epoch": 98180,
        "meta_bstar": 0.00011466645,
        "meta_mean_motion_dot": 3.19e-06,
        "meta_mean_motion_ddot": 0,
        "tle_line1": "1 31152U 99025BHE 25355.90947874  .00000319  00000+0  11467-3 0  9999",
        "tle_line2": "2 31152  98.4148 342.2903 0129614   6.0973  24.0524 14.35855978981807"
      },
      "geometry": {
        "type": "Point",
        "coordinates": [
          -15.534292268876777,
          -7.801515288090959
        ]
      }
    },
    {
      "type": "Feature",
      "properties": {
        "norad_id": 31155,
        "name": "FENGYUN 1C DEB",
        "group": "fengyun-1c-debris",
        "lat": -27.28936858464661,
        "lon": 70.6096311160626,
        "alt_km": 806.4946160274712,
        "timestamp": "2025-12-22T22:44:21.256170+00:00",
        "meta_object_name": "FENGYUN 1C DEB",
        "meta_object_id": "1999-025BHH",
        "meta_epoch": "2025-12-21T11:03:44.422848",
        "meta_mean_motion": 14.08358593,
        "meta_eccentricity": 0.00886067,
        "meta_inclination": 99.0417,
        "meta_ra_of_asc_node": 64.4081,
        "meta_arg_of_pericenter": 338.2195,
        "meta_mean_anomaly": 21.5216,
        "meta_ephemeris_type": 0,
        "meta_classification_type": "U",
        "meta_norad_cat_id": 31155,
        "meta_element_set_no": 999,
        "meta_rev_at_epoch": 95710,
        "meta_bstar": 0.00094337656,
        "meta_mean_motion_dot": 1.628e-05,
        "meta_mean_motion_ddot": 0,
        "tle_line1": "1 31155U 99025BHH 25355.46093082  .00001628  00000+0  94338-3 0  9998",
        "tle_line2": "2 31155  99.0417  64.4081 0088606 338.2195  21.5216 14.08358593957104"
      },
      "geometry": {
        "type": "Point",
        "coordinates": [
          70.6096311160626,
          -27.28936858464661
        ]
      }
    },
    {
      "type": "Feature",
      "properties": {
        "norad_id": 31157,
        "name": "FENGYUN 1C DEB",
        "group": "fengyun-1c-debris",
        "lat": 72.84921708471543,
        "lon": -48.82887204110646,
        "alt_km": 863.1031234974398,
        "timestamp": "2025-12-22T22:44:21.256180+00:00",
        "meta_object_name": "FENGYUN 1C DEB",
        "meta_object_id": "1999-025BHK",
        "meta_epoch": "2025-12-15T04:42:10.430784",
        "meta_mean_motion": 14.22565872,
        "meta_eccentricity": 0.01000722,
        "meta_inclination": 98.4799,
        "meta_ra_of_asc_node": 332.6191,
        "meta_arg_of_pericenter": 319.3006,
        "meta_mean_anomaly": 40.0724,
        "meta_ephemeris_type": 0,
        "meta_classification_type": "U",
        "meta_norad_cat_id": 31157,
        "meta_element_set_no": 999,
        "meta_rev_at_epoch": 97018,
        "meta_bstar": 0.00031840475,
        "meta_mean_motion_dot": 7.06e-06,
        "meta_mean_motion_ddot": 0,
        "tle_line1": "1 31157U 99025BHK 25349.19595406  .00000706  00000+0  31840-3 0  9995",
        "tle_line2": "2 31157  98.4799 332.6191 0100072 319.3006  40.0724 14.22565872970186"
      },
      "geometry": {
        "type": "Point",
        "coordinates": [
          -48.82887204110646,
          72.84921708471543
        ]
      }
    },
    {
      "type": "Feature",
      "properties": {
        "norad_id": 31158,
        "name": "FENGYUN 1C DEB",
        "group": "fengyun-1c-debris",
        "lat": -78.64701489999464,
        "lon": 126.07190048293229,
        "alt_km": 785.9355141367632,
        "timestamp": "2025-12-22T22:44:21.256190+00:00",
        "meta_object_name": "FENGYUN 1C DEB",
        "meta_object_id": "1999-025BHL",
        "meta_epoch": "2025-12-21T11:56:21.493536",
        "meta_mean_motion": 14.33299733,
        "meta_eccentricity": 0.00468097,
        "meta_inclination": 98.7797,
        "meta_ra_of_asc_node": 74.2735,
        "meta_arg_of_pericenter": 8.2217,
        "meta_mean_anomaly": 351.9724,
        "meta_ephemeris_type": 0,
        "meta_classification_type": "U",
        "meta_norad_cat_id": 31158,
        "meta_element_set_no": 999,
        "meta_rev_at_epoch": 64605,
        "meta_bstar": 0.0012542591,
        "meta_mean_motion_dot": 3.451e-05,
        "meta_mean_motion_ddot": 0,
        "tle_line1": "1 31158U 99025BHL 25355.49747099  .00003451  00000+0  12543-2 0  9991",
        "tle_line2": "2 31158  98.7797  74.2735 0046809   8.2217 351.9724 14.33299733646058"
      },
      "geometry": {
        "type": "Point",
        "coordinates": [
          126.07190048293229,
          -78.64701489999464
        ]
      }
    },
    {
      "type": "Feature",
      "properties": {
        "norad_id": 31159,
        "name": "FENGYUN 1C DEB",
        "group": "fengyun-1c-debris",
        "lat": -20.662048966770417,
        "lon": -39.82894953927994,
        "alt_km": 378.3579411977362,
        "timestamp": "2025-12-22T22:44:21.256200+00:00",
        "meta_object_name": "FENGYUN 1C DEB",
        "meta_object_id": "1999-025BHM",
        "meta_epoch": "2025-12-17T14:54:06.147936",
        "meta_mean_motion": 15.39005719,
        "meta_eccentricity": 0.01094568,
        "meta_inclination": 97.7985,
        "meta_ra_of_asc_node": 311.5382,
        "meta_arg_of_pericenter": 356.4091,
        "meta_mean_anomaly": 3.6355,
        "meta_ephemeris_type": 0,
        "meta_classification_type": "U",
        "meta_norad_cat_id": 31159,
        "meta_element_set_no": 999,
        "meta_rev_at_epoch": 99628,
        "meta_bstar": 0.0013789415,
        "meta_mean_motion_dot": 0.00065992,
        "meta_mean_motion_ddot": 0,
        "tle_line1": "1 31159U 99025BHM 25351.62090449  .00065992  00000+0  13789-2 0  9994",
        "tle_line2": "2 31159  97.7985 311.5382 0109456 356.4091   3.6355 15.39005719996288"
      },
      "geometry": {
        "type": "Point",
        "coordinates": [
          -39.82894953927994,
          -20.662048966770417
        ]
      }
    }
  ]
}